SL-16 R/B               
1 24298U 96051B   25323.54222226 -.00000028  00000+0  11821-4 0  9993
2 24298  70.7609  48.3841 0018519 290.3368  69.5761 14.12393782506093
ORBVIEW 2 (SEASTAR)     
1 24883U 97037A   25323.42422576  .00000409  00000+0  15863-3 0  9996
2 24883  98.8449 119.9135 0002775  45.1400 315.0010 14.35392357492651
SL-16 R/B               
1 25400U 98043G   25323.85450053  .00000099  00000+0  60461-4 0  9998
2 25400  98.8087 271.5488 0009466 339.1934  20.8859 14.26017548423330
SL-16 R/B               
1 25407U 98045B   25323.66739515 -.00000054  00000+0 -32135-5 0  9990
2 25407  71.0123  52.9456 0008319 209.2912 150.7746 14.16168596411521
ISS (ZARYA)             
1 25544U 98067A   25323.31903918  .00014458  00000+0  26247-3 0  9994
2 25544  51.6333 258.3957 0004144  86.8503 273.2960 15.49817487539229
CZ-4B R/B               
1 25732U 99025C   25323.55812222  .00000111  00000+0  74522-4 0  9992
2 25732  98.6803   5.3528 0036155 302.5523 219.5088 14.18235375372552
OKEAN-O                 
1 25860U 99039A   25323.60186094  .00000871  00000+0  12178-3 0  9997
2 25860  97.9637  19.5006 0001224  66.7670 293.3670 14.80105500418104
SL-16 R/B               
1 25861U 99039B   25323.61924132  .00000733  00000+0  10024-3 0  9997
2 25861  98.0160  17.7654 0013541 253.0950 106.8778 14.81538576420568
DELTA 2 R/B             
1 25876U 99041E   25323.55718241  .00001293  00000+0  24760-3 0  9995
2 25876  51.7633  20.9813 0504882  23.4520 338.8588 14.11319231347475
HELIOS 1B               
1 25977U 99064A   25323.65884933  .00002423  00000+0  27600-3 0  9997
2 25977  98.1756 217.6419 0002511  74.0629 286.0863 14.87149004668905
TERRA                   
1 25994U 99068A   25323.80381925  .00000592  00000+0  13008-3 0  9992
2 25994  97.9781  16.3256 0002832 145.1451 350.0068 14.60914901379030
SL-16 R/B               
1 26070U 00006B   25323.72494394 -.00000147  00000+0 -50590-4 0  9994
2 26070  71.0020 329.0503 0017271 340.8767  19.1706 14.15801302332997
